NORAD_CAT_ID,OBJECT_NAME,OBJECT_TYPE,EPOCH,MEAN_MOTION,ECCENTRICITY,INCLINATION,RA_OF_ASC_NODE,ARG_OF_PERICENTER,MEAN_ANOMALY,BSTAR,MEAN_MOTION_DOT,MEAN_MOTION_DDOT,TLE_LINE0,TLE_LINE1,TLE_LINE2,SEMIMAJOR_AXIS,PERIOD,APOGEE,PERIGEE,DECAYED
51978.0,STARLINK-3666,PAYLOAD,2022-08-04 22:00:00,15.08845027,0.0001961,53.2151,172.3775,67.1195,228.9604,0.00014042,1.948e-05,0.0,0 STARLINK-3666,1 51978U 22025Y   22216.91667824  .00001948  00000-0  14042-3 0  9993,2 51978  53.2151 172.3775 0001961  67.1195 228.9604 15.08845027  1302,6917.865,95.437,541.087,538.373,0.0
51978.0,STARLINK-3666,PAYLOAD,2022-08-05 06:00:02,15.08826541,0.0002115,53.215,170.8828,60.5956,247.1531,0.0016977999999999,0.00026826,0.0,0 STARLINK-3666,1 51978U 22025Y   22217.25002315  .00026826  00000-0  16978-2 0  9990,2 51978  53.2150 170.8828 0002115  60.5956 247.1531 15.08826541 24012,6917.922,95.438,541.25,538.323,0.0
51978.0,STARLINK-3666,PAYLOAD,2022-08-05 14:00:01,15.08855831,0.0002017,53.2148,169.385,63.1683,256.1739,-0.0013939,-0.00022414,0.0,0 STARLINK-3666,1 51978U 22025Y   22217.58335648 -.00022414  00000-0 -13939-2 0  9999,2 51978  53.2148 169.3850 0002017  63.1683 256.1739 15.08855831  1305,6917.831999999999,95.437,541.092,538.302,0.0
51978.0,STARLINK-3666,PAYLOAD,2022-08-05 22:00:00,15.08869474,0.0002005999999999,53.2148,167.8883,67.104,263.7767,-0.001661,-0.00026648,0.0,0 STARLINK-3666,1 51978U 22025Y   22217.91667824 -.00026648  00000-0 -16610-2 0  9992,2 51978  53.2148 167.8883 0002006  67.1040 263.7767 15.08869474  1306,6917.79,95.436,541.043,538.268,0.0
51978.0,STARLINK-3666,PAYLOAD,2022-08-06 08:00:01,15.08812432,0.0002053,53.2146,166.0194,58.5041,16.9019,0.0027302,0.00043399,0.0,0 STARLINK-3666,1 51978U 22025Y   22218.33334491  .00043399  00000-0  27302-2 0  9990,2 51978  53.2146 166.0194 0002053  58.5041  16.9019 15.08812432 24177,6917.965,95.439,541.25,538.409,0.0
51978.0,STARLINK-3666,PAYLOAD,2022-08-06 14:00:01,15.0883965,0.0001995,53.2148,164.8956,62.816,291.2735,-0.00085282,-0.00013835,0.0,0 STARLINK-3666,1 51978U 22025Y   22218.58334491 -.00013835  00000-0 -85282-3 0  9993,2 51978  53.2148 164.8956 0001995  62.8160 291.2735 15.08839650  1309,6917.880999999999,95.438,541.127,538.366,0.0
51978.0,STARLINK-3666,PAYLOAD,2022-08-06 22:00:00,15.08851642,0.0002031,53.215,163.399,66.2527,299.422,-0.00039602,-6.588e-05,0.0,0 STARLINK-3666,1 51978U 22025Y   22218.91667824 -.00006588  00000-0 -39602-3 0  9991,2 51978  53.2150 163.3990 0002031  66.2527 299.4220 15.08851642 24265,6917.845,95.437,541.115,538.305,0.0
51978.0,STARLINK-3666,PAYLOAD,2022-08-07 14:00:01,15.08830251,0.0001979,53.2153,160.4062,63.2525,325.6307,-0.0010019,-0.00016194,0.0,0 STARLINK-3666,1 51978U 22025Y   22219.58334491 -.00016194  00000-0 -10019-2 0  9990,2 51978  53.2153 160.4062 0001979  63.2525 325.6307 15.08830251  1302,6917.91,95.438,541.144,538.406,0.0
51978.0,STARLINK-3666,PAYLOAD,2022-08-07 22:00:00,15.08846988,0.0002000999999999,53.2155,158.9098,65.6384,334.8234,-0.00060796,-9.953e-05,0.0,0 STARLINK-3666,1 51978U 22025Y   22219.91667824 -.00009953  00000-0 -60796-3 0  9999,2 51978  53.2155 158.9098 0002001  65.6384 334.8234 15.08846988  1306,6917.859,95.437,541.1080000000002,538.34,0.0
51978.0,STARLINK-3666,PAYLOAD,2022-08-08 06:00:00,15.08822419,0.0002104,53.2156,157.4149,60.3393,351.7309,0.0032317,0.00051496,0.0,0 STARLINK-3666,1 51978U 22025Y   22220.25001157  .00051496  00000-0  32317-2 0  9993,2 51978  53.2156 157.4149 0002104  60.3393 351.7309 15.08822419 24460,6917.934,95.439,541.255,538.344,0.0
51978.0,STARLINK-3666,PAYLOAD,2022-08-08 14:00:01,15.08859819,0.0001953,53.2159,155.9168,64.8334,358.9057,-4.6398e-05,-1.027e-05,0.0,0 STARLINK-3666,1 51978U 22025Y   22220.58335648 -.00001027  00000-0 -46398-4 0  9997,2 51978  53.2159 155.9168 0001953  64.8334 358.9057 15.08859819  1303,6917.82,95.436,541.036,538.3340000000002,0.0
51978.0,STARLINK-3666,PAYLOAD,2022-08-08 22:00:00,15.08874929,0.0001903,53.2161,154.4207,66.153,9.1446,-0.0019462,-0.00031159,0.0,0 STARLINK-3666,1 51978U 22025Y   22220.91667824 -.00031159  00000-0 -19462-2 0  9997,2 51978  53.2161 154.4207 0001903  66.1530   9.1446 15.08874929  1308,6917.774,95.435,540.955,538.322,0.0
51978.0,STARLINK-3666,PAYLOAD,2022-08-09 14:00:01,15.08801877,0.0001683,53.2164,151.4277,62.6945,35.8209,0.0005771,8.899e-05,0.0,0 STARLINK-3666,1 51978U 22025Y   22221.58334491  .00008899  00000-0  57710-3 0  9994,2 51978  53.2164 151.4277 0001683  62.6945  35.8209 15.08801877  1306,6917.996999999999,95.44,541.026,538.698,0.0
51978.0,STARLINK-3666,PAYLOAD,2022-08-09 22:00:00,15.088233,0.0001773,53.2166,149.9318,65.0226,45.0433,-0.0029411999999999,-0.00046773,0.0,0 STARLINK-3666,1 51978U 22025Y   22221.91667824 -.00046773  00000-0 -29412-2 0  9992,2 51978  53.2166 149.9318 0001773  65.0226  45.0433 15.08823300  1302,6917.931,95.439,541.023,538.57,0.0
51978.0,STARLINK-3666,PAYLOAD,2022-08-10 06:00:00,15.08773573,0.0001881,53.2164,148.4369,59.3258,62.3016,0.0034351,0.00054707,0.0,0 STARLINK-3666,1 51978U 22025Y   22222.25001157  .00054707  00000-0  34351-2 0  9993,2 51978  53.2164 148.4369 0001881  59.3258  62.3016 15.08773573 24772,6918.083000000001,95.442,541.25,538.6469999999998,0.0
51978.0,STARLINK-3666,PAYLOAD,2022-08-10 14:00:01,15.0879158,0.0001749,53.2165,146.9391,66.2595,66.9123,0.0016777,0.00026478,0.0,0 STARLINK-3666,1 51978U 22025Y   22222.58334491  .00026478  00000-0  16777-2 0  9995,2 51978  53.2165 146.9391 0001749  66.2595  66.9123 15.08791580  1306,6918.028,95.441,541.1030000000002,538.683,0.0
51978.0,STARLINK-3666,PAYLOAD,2022-08-10 22:00:00,15.08876051,0.0001853,53.2174,145.4444,63.1703,81.5283,-0.00041209,-6.847e-05,0.0,0 STARLINK-3666,1 51978U 22025Y   22222.91667824 -.00006847  00000-0 -41209-3 0  9990,2 51978  53.2174 145.4444 0001853  63.1703  81.5283 15.08876051  1309,6917.77,95.435,540.9169999999998,538.3530000000002,0.0
51978.0,STARLINK-3666,PAYLOAD,2022-08-11 06:00:02,15.08795234,0.0001899,53.2163,143.9483,61.4935,94.8569,0.0030664999999999,0.00048794,0.0,0 STARLINK-3666,1 51978U 22025Y   22223.25002315  .00048794  00000-0  30665-2 0  9994,2 51978  53.2163 143.9483 0001899  61.4935  94.8569 15.08795234 24921,6918.017,95.44,541.196,538.568,0.0
51978.0,STARLINK-3666,PAYLOAD,2022-08-11 14:00:01,15.08808585,0.0001776999999999,53.2163,142.4505,68.6555,99.2033,0.0020359,0.00032234,0.0,0 STARLINK-3666,1 51978U 22025Y   22223.58334491  .00032234  00000-0  20359-2 0  9994,2 51978  53.2163 142.4505 0001777  68.6555  99.2033 15.08808585  1308,6917.976,95.44,541.071,538.612,0.0
51978.0,STARLINK-3666,PAYLOAD,2022-08-11 22:00:00,15.08847434,0.0001865999999999,53.2165,140.955,69.3506,110.0762,-0.0013463,-0.00021655,0.0,0 STARLINK-3666,1 51978U 22025Y   22223.91667824 -.00021655  00000-0 -13463-2 0  9995,2 51978  53.2165 140.9550 0001866  69.3506 110.0762 15.08847434 25028,6917.858,95.437,541.014,538.432,0.0
51978.0,STARLINK-3666,PAYLOAD,2022-08-12 14:00:01,15.08835499,0.0001819,53.216,137.9616,70.3298,132.3056,0.0027126999999999,0.00043144,0.0,0 STARLINK-3666,1 51978U 22025Y   22224.58334491  .00043144  00000-0  27127-2 0  9997,2 51978  53.2160 137.9616 0001819  70.3298 132.3056 15.08835499  1306,6917.894,95.438,541.018,538.501,0.0
51978.0,STARLINK-3666,PAYLOAD,2022-08-12 22:00:01,15.0887555,0.0001906,53.2161,136.4661,69.8895,144.4086,-0.0013472,-0.00021686,0.0,0 STARLINK-3666,1 51978U 22025Y   22224.91668981 -.00021686  00000-0 -13472-2 0  9995,2 51978  53.2161 136.4661 0001906  69.8895 144.4086 15.08875550  1303,6917.772,95.435,540.955,538.318,0.0
51978.0,STARLINK-3666,PAYLOAD,2022-08-13 06:00:02,15.08856985,0.0001872,53.2158,134.9705,63.3569,162.5697,-0.0012175999999999,-0.00019623,0.0,0 STARLINK-3666,1 51978U 22025Y   22225.25002315 -.00019623  00000-0 -12176-2 0  9994,2 51978  53.2158 134.9705 0001872  63.3569 162.5697 15.08856985 25227,6917.828,95.436,540.988,538.398,0.0
51978.0,STARLINK-3666,PAYLOAD,2022-08-13 14:00:01,15.08803932,0.0001682,53.2159,133.4723,68.0521,169.4282,0.0015642999999999,0.00024671,0.0,0 STARLINK-3666,1 51978U 22025Y   22225.58334491  .00024671  00000-0  15643-2 0  9992,2 51978  53.2159 133.4723 0001682  68.0521 169.4282 15.08803932  1304,6917.991,95.44,541.019,538.692,0.0
51978.0,STARLINK-3666,PAYLOAD,2022-08-13 22:00:00,15.08833051,0.0001766,53.2159,131.977,66.9813,182.0592,-0.0011612999999999,-0.00018719,0.0,0 STARLINK-3666,1 51978U 22025Y   22225.91667824 -.00018719  00000-0 -11613-2 0  9999,2 51978  53.2159 131.9770 0001766  66.9813 182.0592 15.08833051  1303,6917.901999999999,95.438,540.988,538.545,0.0
51978.0,STARLINK-3666,PAYLOAD,2022-08-14 14:00:01,15.08814699,0.0001738,53.2159,128.9831,68.3362,203.8773,0.0031995,0.00050965,0.0,0 STARLINK-3666,1 51978U 22025Y   22226.58334491  .00050965  00000-0  31995-2 0  9996,2 51978  53.2159 128.9831 0001738  68.3362 203.8773 15.08814699  1301,6917.958000000001,95.439,541.025,538.62,0.0
51978.0,STARLINK-3666,PAYLOAD,2022-08-14 16:00:01,15.08820989,0.0001766999999999,53.2159,128.6088,70.0386,295.1322,0.0031642,0.00050405,0.0,0 STARLINK-3666,1 51978U 22025Y   22226.66668981  .00050405  00000-0  31642-2 0  9997,2 51978  53.2159 128.6088 0001767  70.0386 295.1322 15.08820989 25433,6917.938,95.439,541.026,538.581,0.0
51978.0,STARLINK-3666,PAYLOAD,2022-08-14 22:00:00,15.08858097,0.0001854,53.2159,127.4878,66.5374,217.26,-0.001032,-0.00016683,0.0,0 STARLINK-3666,1 51978U 22025Y   22226.91667824 -.00016683  00000-0 -10320-2 0  9992,2 51978  53.2159 127.4878 0001854  66.5374 217.2600 15.08858097  1306,6917.825,95.436,540.9730000000002,538.408,0.0
51978.0,STARLINK-3666,PAYLOAD,2022-08-15 06:00:00,15.08859612,0.0001844999999999,53.2157,125.9918,61.77,233.6316,-0.00054219,-8.912e-05,0.0,0 STARLINK-3666,1 51978U 22025Y   22227.25001157 -.00008912  00000-0 -54219-3 0  9993,2 51978  53.2157 125.9918 0001845  61.7700 233.6316 15.08859612 25522,6917.82,95.436,540.962,538.409,0.0
